{
  "type": "FeatureCollection",
  "features": [
    {
      "type": "Feature",
      "properties": {
        "norad_id": 43783,
        "name": "KAZSTSAT",
        "group": "resource",
        "lat": -25.05341076916504,
        "lon": -151.78071545960856,
        "alt_km": 573.7498105264431,
        "timestamp": "2025-12-22T23:36:20.357437+00:00",
        "meta_object_name": "KAZSTSAT",
        "meta_object_id": "2018-099AB",
        "meta_epoch": "2025-12-22T08:16:39.683136",
        "meta_mean_motion": 14.99367926,
        "meta_eccentricity": 0.00060889,
        "meta_inclination": 97.4522,
        "meta_ra_of_asc_node": 31.1161,
        "meta_arg_of_pericenter": 287.0325,
        "meta_mean_anomaly": 73.0232,
        "meta_ephemeris_type": 0,
        "meta_classification_type": "U",
        "meta_norad_cat_id": 43783,
        "meta_element_set_no": 999,
        "meta_rev_at_epoch": 38480,
        "meta_bstar": 4.5132456e-05,
        "meta_mean_motion_dot": 4.96e-06,
        "meta_mean_motion_ddot": 0,
        "tle_line1": "1 43783U 18099AB  25356.34490374  .00000496  00000+0  45132-4 0  9994",
        "tle_line2": "2 43783  97.4522  31.1161 0006088 287.0325  73.0232 14.99367926384804"
      },
      "geometry": {
        "type": "Point",
        "coordinates": [
          -151.78071545960856,
          -25.05341076916504
        ]
      }
    },
    {
      "type": "Feature",
      "properties": {
        "norad_id": 43831,
        "name": "SAUDISAT 5A",
        "group": "resource",
        "lat": 31.1242943542686,
        "lon": -118.56304392395398,
        "alt_km": 488.69900258639063,
        "timestamp": "2025-12-22T23:36:20.357448+00:00",
        "meta_object_name": "SAUDISAT 5A",
        "meta_object_id": "2018-102A",
        "meta_epoch": "2025-12-22T19:48:35.813664",
        "meta_mean_motion": 15.25773298,
        "meta_eccentricity": 0.0011246,
        "meta_inclination": 97.3335,
        "meta_ra_of_asc_node": 56.8218,
        "meta_arg_of_pericenter": 45.0327,
        "meta_mean_anomaly": 315.1821,
        "meta_ephemeris_type": 0,
        "meta_classification_type": "U",
        "meta_norad_cat_id": 43831,
        "meta_element_set_no": 999,
        "meta_rev_at_epoch": 38876,
        "meta_bstar": 0.00024676,
        "meta_mean_motion_dot": 6.241e-05,
        "meta_mean_motion_ddot": 0,
        "tle_line1": "1 43831U 18102A   25356.82541451  .00006241  00000+0  24676-3 0  9992",
        "tle_line2": "2 43831  97.3335  56.8218 0011246  45.0327 315.1821 15.25773298388768"
      },
      "geometry": {
        "type": "Point",
        "coordinates": [
          -118.56304392395398,
          31.1242943542686
        ]
      }
    },
    {
      "type": "Feature",
      "properties": {
        "norad_id": 43833,
        "name": "SAUDISAT 5B",
        "group": "resource",
        "lat": -33.32559661653799,
        "lon": -125.13022968675905,
        "alt_km": 501.6810311165582,
        "timestamp": "2025-12-22T23:36:20.357459+00:00",
        "meta_object_name": "SAUDISAT 5B",
        "meta_object_id": "2018-102C",
        "meta_epoch": "2025-12-22T19:31:34.113792",
        "meta_mean_motion": 15.26120483,
        "meta_eccentricity": 0.0011984,
        "meta_inclination": 97.3432,
        "meta_ra_of_asc_node": 59.5669,
        "meta_arg_of_pericenter": 47.1019,
        "meta_mean_anomaly": 313.1223,
        "meta_ephemeris_type": 0,
        "meta_classification_type": "U",
        "meta_norad_cat_id": 43833,
        "meta_element_set_no": 999,
        "meta_rev_at_epoch": 38887,
        "meta_bstar": 0.00023435,
        "meta_mean_motion_dot": 5.987e-05,
        "meta_mean_motion_ddot": 0,
        "tle_line1": "1 43833U 18102C   25356.81358928  .00005987  00000+0  23435-3 0  9996",
        "tle_line2": "2 43833  97.3432  59.5669 0011984  47.1019 313.1223 15.26120483388877"
      },
      "geometry": {
        "type": "Point",
        "coordinates": [
          -125.13022968675905,
          -33.32559661653799
        ]
      }
    },
    {
      "type": "Feature",
      "properties": {
        "norad_id": 44622,
        "name": "GAOFEN-10R",
        "group": "resource",
        "lat": 4.1998219837093975,
        "lon": -56.0634009634999,
        "alt_km": 617.8978428329374,
        "timestamp": "2025-12-22T23:36:20.357469+00:00",
        "meta_object_name": "GAOFEN-10R",
        "meta_object_id": "2019-066A",
        "meta_epoch": "2025-12-22T20:20:51.261792",
        "meta_mean_motion": 14.8282414,
        "meta_eccentricity": 0.0007176,
        "meta_inclination": 98.0292,
        "meta_ra_of_asc_node": 304.3942,
        "meta_arg_of_pericenter": 12.2067,
        "meta_mean_anomaly": 347.9319,
        "meta_ephemeris_type": 0,
        "meta_classification_type": "U",
        "meta_norad_cat_id": 44622,
        "meta_element_set_no": 999,
        "meta_rev_at_epoch": 33624,
        "meta_bstar": 0.00018093,
        "meta_mean_motion_dot": 1.41e-05,
        "meta_mean_motion_ddot": 0,
        "tle_line1": "1 44622U 19066A   25356.84781553  .00001410  00000+0  18093-3 0  9991",
        "tle_line2": "2 44622  98.0292 304.3942 0007176  12.2067 347.9319 14.82824140336242"
      },
      "geometry": {
        "type": "Point",
        "coordinates": [
          -56.0634009634999,
          4.1998219837093975
        ]
      }
    },
    {
      "type": "Feature",
      "properties": {
        "norad_id": 44804,
        "name": "CARTOSAT-3",
        "group": "resource",
        "lat": 65.95031967175518,
        "lon": 39.36938309256429,
        "alt_km": 492.6479736181409,
        "timestamp": "2025-12-22T23:36:20.357480+00:00",
        "meta_object_name": "CARTOSAT-3",
        "meta_object_id": "2019-081A",
        "meta_epoch": "2025-12-22T20:09:02.614176",
        "meta_mean_motion": 15.19232643,
        "meta_eccentricity": 0.0013764,
        "meta_inclination": 97.4568,
        "meta_ra_of_asc_node": 56.2945,
        "meta_arg_of_pericenter": 51.299,
        "meta_mean_anomaly": 308.9473,
        "meta_ephemeris_type": 0,
        "meta_classification_type": "U",
        "meta_norad_cat_id": 44804,
        "meta_element_set_no": 999,
        "meta_rev_at_epoch": 33669,
        "meta_bstar": 0.00024161,
        "meta_mean_motion_dot": 5.033e-05,
        "meta_mean_motion_ddot": 0,
        "tle_line1": "1 44804U 19081A   25356.83961359  .00005033  00000+0  24161-3 0  9991",
        "tle_line2": "2 44804  97.4568  56.2945 0013764  51.2990 308.9473 15.19232643336696"
      },
      "geometry": {
        "type": "Point",
        "coordinates": [
          39.36938309256429,
          65.95031967175518
        ]
      }
    },
    {
      "type": "Feature",
      "properties": {
        "norad_id": 44819,
        "name": "GAOFEN-12 01",
        "group": "resource",
        "lat": -12.175135610506969,
        "lon": -178.7018245706513,
        "alt_km": 630.2847206974202,
        "timestamp": "2025-12-22T23:36:20.357491+00:00",
        "meta_object_name": "GAOFEN-12 01",
        "meta_object_id": "2019-082A",
        "meta_epoch": "2025-12-22T14:37:51.708000",
        "meta_mean_motion": 14.80668193,
        "meta_eccentricity": 0.00020004,
        "meta_inclination": 97.8124,
        "meta_ra_of_asc_node": 2.6315,
        "meta_arg_of_pericenter": 187.2476,
        "meta_mean_anomaly": 172.8708,
        "meta_ephemeris_type": 0,
        "meta_classification_type": "U",
        "meta_norad_cat_id": 44819,
        "meta_element_set_no": 999,
        "meta_rev_at_epoch": 32796,
        "meta_bstar": 6.2517569e-05,
        "meta_mean_motion_dot": 4.3e-06,
        "meta_mean_motion_ddot": 0,
        "tle_line1": "1 44819U 19082A   25356.60962625  .00000430  00000+0  62518-4 0  9995",
        "tle_line2": "2 44819  97.8124   2.6315 0002000 187.2476 172.8708 14.80668193327969"
      },
      "geometry": {
        "type": "Point",
        "coordinates": [
          -178.7018245706513,
          -12.175135610506969
        ]
      }
    },
    {
      "type": "Feature",
      "properties": {
        "norad_id": 44873,
        "name": "CSG-1",
        "group": "resource",
        "lat": -2.082924116804229,
        "lon": 178.44182860954783,
        "alt_km": 625.7586080116807,
        "timestamp": "2025-12-22T23:36:20.357501+00:00",
        "meta_object_name": "CSG-1",
        "meta_object_id": "2019-092A",
        "meta_epoch": "2025-12-22T13:53:36.911616",
        "meta_mean_motion": 14.82152799,
        "meta_eccentricity": 0.00014711,
        "meta_inclination": 97.8804,
        "meta_ra_of_asc_node": 177.7548,
        "meta_arg_of_pericenter": 85.4598,
        "meta_mean_anomaly": 274.6783,
        "meta_ephemeris_type": 0,
        "meta_classification_type": "U",
        "meta_norad_cat_id": 44873,
        "meta_element_set_no": 999,
        "meta_rev_at_epoch": 32531,
        "meta_bstar": 6.9748001e-05,
        "meta_mean_motion_dot": 5.03e-06,
        "meta_mean_motion_ddot": 0,
        "tle_line1": "1 44873U 19092A   25356.57889944  .00000503  00000+0  69748-4 0  9997",
        "tle_line2": "2 44873  97.8804 177.7548 0001471  85.4598 274.6783 14.82152799325314"
      },
      "geometry": {
        "type": "Point",
        "coordinates": [
          178.44182860954783,
          -2.082924116804229
        ]
      }
    }
  ]
}